[{"OBJECT_NAME":"STARLINK-3387","OBJECT_ID":"2022-005X","EPOCH":"2026-03-09T21:11:38.969952","MEAN_MOTION":15.08831128,"ECCENTRICITY":0.00011414,"INCLINATION":53.2175,"RA_OF_ASC_NODE":298.2642,"ARG_OF_PERICENTER":89.3922,"MEAN_ANOMALY":270.7201,"EPHEMERIS_TYPE":0,"CLASSIFICATION_TYPE":"U","NORAD_CAT_ID":51125,"ELEMENT_SET_NO":999,"REV_AT_EPOCH":22875,"BSTAR":0.00011720925,"MEAN_MOTION_DOT":1.578e-5,"MEAN_MOTION_DDOT":0},{"OBJECT_NAME":"FENGYUN 1C DEB","OBJECT_ID":"1999-025DZE","EPOCH":"2026-02-28T06:22:54.338880","MEAN_MOTION":15.08907087,"ECCENTRICITY":0.00232464,"INCLINATION":99.4552,"RA_OF_ASC_NODE":173.2368,"ARG_OF_PERICENTER":218.3208,"MEAN_ANOMALY":141.6363,"EPHEMERIS_TYPE":0,"CLASSIFICATION_TYPE":"U","NORAD_CAT_ID":36684,"ELEMENT_SET_NO":999,"REV_AT_EPOCH":67065,"BSTAR":0.0055309563,"MEAN_MOTION_DOT":0.00088715,"MEAN_MOTION_DDOT":0}]
